{
  "type": "FeatureCollection",
  "features": [
    {
      "type": "Feature",
      "properties": {
        "norad_id": 58654,
        "name": "BEIDOU-3 M28 (C50)",
        "group": "beidou",
        "lat": 27.751842394008296,
        "lon": -132.3739064628229,
        "alt_km": 21528.059797550453,
        "timestamp": "2025-12-08T21:31:04.933386+00:00",
        "meta_object_name": "BEIDOU-3 M28 (C50)",
        "meta_object_id": "2023-207A",
        "meta_epoch": "2025-12-06T12:45:22.310208",
        "meta_mean_motion": 1.86229594,
        "meta_eccentricity": 0.00021908,
        "meta_inclination": 55.5792,
        "meta_ra_of_asc_node": 68.8117,
        "meta_arg_of_pericenter": 267.5881,
        "meta_mean_anomaly": 92.402,
        "meta_ephemeris_type": 0,
        "meta_classification_type": "U",
        "meta_norad_cat_id": 58654,
        "meta_element_set_no": 999,
        "meta_rev_at_epoch": 1325,
        "meta_bstar": 0,
        "meta_mean_motion_dot": -4.7e-07,
        "meta_mean_motion_ddot": 0,
        "tle_line1": "1 58654U 23207A   25340.53150822 -.00000047  00000+0  00000+0 0  9992",
        "tle_line2": "2 58654  55.5792  68.8117 0002190 267.5881  92.4020  1.86229594 13257"
      },
      "geometry": {
        "type": "Point",
        "coordinates": [
          -132.3739064628229,
          27.751842394008296
        ]
      }
    },
    {
      "type": "Feature",
      "properties": {
        "norad_id": 58655,
        "name": "BEIDOU-3 M26 (C48)",
        "group": "beidou",
        "lat": -54.01504762369845,
        "lon": -1.8003180335877949,
        "alt_km": 21524.826834063966,
        "timestamp": "2025-12-08T21:31:04.933397+00:00",
        "meta_object_name": "BEIDOU-3 M26 (C48)",
        "meta_object_id": "2023-207B",
        "meta_epoch": "2025-12-08T11:26:54.595392",
        "meta_mean_motion": 1.8623113,
        "meta_eccentricity": 0.00036549,
        "meta_inclination": 55.583,
        "meta_ra_of_asc_node": 68.7321,
        "meta_arg_of_pericenter": 253.8899,
        "meta_mean_anomaly": 106.0912,
        "meta_ephemeris_type": 0,
        "meta_classification_type": "U",
        "meta_norad_cat_id": 58655,
        "meta_element_set_no": 999,
        "meta_rev_at_epoch": 1327,
        "meta_bstar": 0,
        "meta_mean_motion_dot": -4.7e-07,
        "meta_mean_motion_ddot": 0,
        "tle_line1": "1 58655U 23207B   25342.47702078 -.00000047  00000+0  00000+0 0  9994",
        "tle_line2": "2 58655  55.5830  68.7321 0003654 253.8899 106.0912  1.86231130 13273"
      },
      "geometry": {
        "type": "Point",
        "coordinates": [
          -1.8003180335877949,
          -54.01504762369845
        ]
      }
    },
    {
      "type": "Feature",
      "properties": {
        "norad_id": 61186,
        "name": "BEIDOU-3 M25 (C47)",
        "group": "beidou",
        "lat": 30.341723086024956,
        "lon": -26.63152748006362,
        "alt_km": 21527.73493026057,
        "timestamp": "2025-12-08T21:31:04.933409+00:00",
        "meta_object_name": "BEIDOU-3 M25 (C47)",
        "meta_object_id": "2024-168B",
        "meta_epoch": "2025-12-08T12:05:45.909312",
        "meta_mean_motion": 1.86229865,
        "meta_eccentricity": 0.00054392,
        "meta_inclination": 54.6457,
        "meta_ra_of_asc_node": 308.8661,
        "meta_arg_of_pericenter": 295.7763,
        "meta_mean_anomaly": 199.2113,
        "meta_ephemeris_type": 0,
        "meta_classification_type": "U",
        "meta_norad_cat_id": 61186,
        "meta_element_set_no": 999,
        "meta_rev_at_epoch": 823,
        "meta_bstar": 0,
        "meta_mean_motion_dot": -7.4e-07,
        "meta_mean_motion_ddot": 0,
        "tle_line1": "1 61186U 24168B   25342.50400358 -.00000074  00000+0  00000+0 0  9994",
        "tle_line2": "2 61186  54.6457 308.8661 0005439 295.7763 199.2113  1.86229865  8233"
      },
      "geometry": {
        "type": "Point",
        "coordinates": [
          -26.63152748006362,
          30.341723086024956
        ]
      }
    },
    {
      "type": "Feature",
      "properties": {
        "norad_id": 61187,
        "name": "BEIDOU-3 M27 (C49)",
        "group": "beidou",
        "lat": 5.553739190134269,
        "lon": 124.86014078004527,
        "alt_km": 21533.75938337946,
        "timestamp": "2025-12-08T21:31:04.933421+00:00",
        "meta_object_name": "BEIDOU-3 M27 (C49)",
        "meta_object_id": "2024-168C",
        "meta_epoch": "2025-12-08T08:37:14.421216",
        "meta_mean_motion": 1.86229996,
        "meta_eccentricity": 0.00023093,
        "meta_inclination": 54.6413,
        "meta_ra_of_asc_node": 308.8548,
        "meta_arg_of_pericenter": 333.5406,
        "meta_mean_anomaly": 199.3005,
        "meta_ephemeris_type": 0,
        "meta_classification_type": "U",
        "meta_norad_cat_id": 61187,
        "meta_element_set_no": 999,
        "meta_rev_at_epoch": 570,
        "meta_bstar": 0,
        "meta_mean_motion_dot": -7.3e-07,
        "meta_mean_motion_ddot": 0,
        "tle_line1": "1 61187U 24168C   25342.35919469 -.00000073  00000+0  00000+0 0  9995",
        "tle_line2": "2 61187  54.6413 308.8548 0002309 333.5406 199.3005  1.86229996  5703"
      },
      "geometry": {
        "type": "Point",
        "coordinates": [
          124.86014078004527,
          5.553739190134269
        ]
      }
    }
  ]
}